ONEWEB-0342             
1 49208U 21083Y   25279.18682316  .00000025  00000+0  29540-4 0  9997
2 49208  87.9234 325.0857 0001870 100.4789 259.6555 13.20773107203253
ONEWEB-0343             
1 49209U 21083Z   25277.73702696 -.00044171  00000+0 -11336+0 0  9992
2 49209  87.9216  26.1742 0001648 116.0362 244.0939 13.18241408196378
ONEWEB-0344             
1 49210U 21083AA  25278.53432389  .00000041  00000+0  77105-4 0  9999
2 49210  87.9041  10.8711 0002235 100.8298 259.3083 13.13471509197466
ONEWEB-0345             
1 49211U 21083AB  25279.21146638 -.00000246  00000+0 -70924-3 0  9995
2 49211  87.9045  10.6917 0002228 102.7774 257.3604 13.13469687197561
ONEWEB-0346             
1 49212U 21083AC  25278.35236786 -.00000332  00000+0 -87601-3 0  9990
2 49212  87.9223  26.0754 0001871  80.1417 279.9926 13.18686137196399
ONEWEB-0348             
1 49213U 21083AD  25279.10159411  .00000018  00000+0  12336-4 0  9997
2 49213  87.9232 325.1140 0002408  86.6121 273.5288 13.20773047203279
ONEWEB-0350             
1 49214U 21083AE  25278.53517572  .00000089  00000+0  20826-3 0  9990
2 49214  87.9054  10.8203 0002129  99.8696 260.2674 13.13471810197508
ONEWEB-0351             
1 49215U 21083AF  25279.17092529  .00000062  00000+0  11982-3 0  9996
2 49215  87.9241 325.0902 0002182 120.9787 239.1561 13.20771944203248
ONEWEB-0352             
1 49216U 21083AG  25279.20130192 -.00000180  00000+0 -52661-3 0  9992
2 49216  87.9032  10.7189 0001890 115.3927 244.7398 13.13470336197684
ONEWEB-0354             
1 49217U 21083AH  25279.19631001  .00000007  00000+0 -14572-4 0  9993
2 49217  87.9245 325.0833 0002210  93.9960 266.1426 13.20772143203287
ONEWEB-0355             
1 49218U 21083AJ  25279.15405242  .00000122  00000+0  29804-3 0  9996
2 49218  87.9047  10.7384 0001973 105.0828 255.0519 13.13472081197552
ONEWEB-0357             
1 49219U 21083AK  25279.19315323 -.00000002  00000+0 -38038-4 0  9990
2 49219  87.9236 325.0824 0002001 100.1709 259.9650 13.20772629203287
ONEWEB-0332             
1 49279U 21090A   25279.21357889 -.00000050  00000+0 -16803-3 0  9998
2 49279  87.9053 340.3067 0001669 104.5196 255.6119 13.14501445194210
ONEWEB-0347             
1 49280U 21090B   25279.18366914  .00000065  00000+0  12775-3 0  9993
2 49280  87.9237 325.0977 0001542  97.5925 262.5383 13.20772457197513
ONEWEB-0349             
1 49281U 21090C   25279.13948464  .00000013  00000+0 -50655-6 0  9991
2 49281  87.9229 325.1058 0001889  99.2822 260.8525 13.20770532196290
ONEWEB-0353             
1 49282U 21090D   25279.20565308 -.00000101  00000+0 -30627-3 0  9995
2 49282  87.9053 340.2912 0001630 103.1028 257.0283 13.14502190194215
ONEWEB-0356             
1 49283U 21090E   25279.13790384  .00000021  00000+0  20204-4 0  9992
2 49283  87.9233 325.0984 0001730  69.2282 290.9037 13.20773181196291
