[{"OBJECT_NAME":"ONEWEB-0342","OBJECT_ID":"2021-083Y","EPOCH":"2025-10-06T04:29:01.521024","MEAN_MOTION":13.20773107,"ECCENTRICITY":0.000187,"INCLINATION":87.9234,"RA_OF_ASC_NODE":325.0857,"ARG_OF_PERICENTER":100.4789,"MEAN_ANOMALY":259.6555,"EPHEMERIS_TYPE":0,"CLASSIFICATION_TYPE":"U","NORAD_CAT_ID":49208,"ELEMENT_SET_NO":999,"REV_AT_EPOCH":20325,"BSTAR":2.954e-5,"MEAN_MOTION_DOT":2.5e-7,"MEAN_MOTION_DDOT":0},{"OBJECT_NAME":"ONEWEB-0343","OBJECT_ID":"2021-083Z","EPOCH":"2025-10-04T17:41:19.129344","MEAN_MOTION":13.18241408,"ECCENTRICITY":0.0001648,"INCLINATION":87.9216,"RA_OF_ASC_NODE":26.1742,"ARG_OF_PERICENTER":116.0362,"MEAN_ANOMALY":244.0939,"EPHEMERIS_TYPE":0,"CLASSIFICATION_TYPE":"U","NORAD_CAT_ID":49209,"ELEMENT_SET_NO":999,"REV_AT_EPOCH":19637,"BSTAR":-0.11336,"MEAN_MOTION_DOT":-0.00044171,"MEAN_MOTION_DDOT":0},{"OBJECT_NAME":"ONEWEB-0344","OBJECT_ID":"2021-083AA","EPOCH":"2025-10-05T12:49:25.584096","MEAN_MOTION":13.13471509,"ECCENTRICITY":0.0002235,"INCLINATION":87.9041,"RA_OF_ASC_NODE":10.8711,"ARG_OF_PERICENTER":100.8298,"MEAN_ANOMALY":259.3083,"EPHEMERIS_TYPE":0,"CLASSIFICATION_TYPE":"U","NORAD_CAT_ID":49210,"ELEMENT_SET_NO":999,"REV_AT_EPOCH":19746,"BSTAR":7.7105e-5,"MEAN_MOTION_DOT":4.1e-7,"MEAN_MOTION_DDOT":0},{"OBJECT_NAME":"ONEWEB-0345","OBJECT_ID":"2021-083AB","EPOCH":"2025-10-06T05:04:30.695232","MEAN_MOTION":13.13469687,"ECCENTRICITY":0.0002228,"INCLINATION":87.9045,"RA_OF_ASC_NODE":10.6917,"ARG_OF_PERICENTER":102.7774,"MEAN_ANOMALY":257.3604,"EPHEMERIS_TYPE":0,"CLASSIFICATION_TYPE":"U","NORAD_CAT_ID":49211,"ELEMENT_SET_NO":999,"REV_AT_EPOCH":19756,"BSTAR":-0.00070924,"MEAN_MOTION_DOT":-2.46e-6,"MEAN_MOTION_DDOT":0},{"OBJECT_NAME":"ONEWEB-0346","OBJECT_ID":"2021-083AC","EPOCH":"2025-10-05T08:27:24.583104","MEAN_MOTION":13.18686137,"ECCENTRICITY":0.0001871,"INCLINATION":87.9223,"RA_OF_ASC_NODE":26.0754,"ARG_OF_PERICENTER":80.1417,"MEAN_ANOMALY":279.9926,"EPHEMERIS_TYPE":0,"CLASSIFICATION_TYPE":"U","NORAD_CAT_ID":49212,"ELEMENT_SET_NO":999,"REV_AT_EPOCH":19639,"BSTAR":-0.00087601,"MEAN_MOTION_DOT":-3.32e-6,"MEAN_MOTION_DDOT":0},{"OBJECT_NAME":"ONEWEB-0348","OBJECT_ID":"2021-083AD","EPOCH":"2025-10-06T02:26:17.731104","MEAN_MOTION":13.20773047,"ECCENTRICITY":0.0002408,"INCLINATION":87.9232,"RA_OF_ASC_NODE":325.114,"ARG_OF_PERICENTER":86.6121,"MEAN_ANOMALY":273.5288,"EPHEMERIS_TYPE":0,"CLASSIFICATION_TYPE":"U","NORAD_CAT_ID":49213,"ELEMENT_SET_NO":999,"REV_AT_EPOCH":20327,"BSTAR":1.2336e-5,"MEAN_MOTION_DOT":1.8e-7,"MEAN_MOTION_DDOT":0},{"OBJECT_NAME":"ONEWEB-0350","OBJECT_ID":"2021-083AE","EPOCH":"2025-10-05T12:50:39.182208","MEAN_MOTION":13.1347181,"ECCENTRICITY":0.0002129,"INCLINATION":87.9054,"RA_OF_ASC_NODE":10.8203,"ARG_OF_PERICENTER":99.8696,"MEAN_ANOMALY":260.2674,"EPHEMERIS_TYPE":0,"CLASSIFICATION_TYPE":"U","NORAD_CAT_ID":49214,"ELEMENT_SET_NO":999,"REV_AT_EPOCH":19750,"BSTAR":0.00020826,"MEAN_MOTION_DOT":8.9e-7,"MEAN_MOTION_DDOT":0},{"OBJECT_NAME":"ONEWEB-0351","OBJECT_ID":"2021-083AF","EPOCH":"2025-10-06T04:06:07.945056","MEAN_MOTION":13.20771944,"ECCENTRICITY":0.0002182,"INCLINATION":87.9241,"RA_OF_ASC_NODE":325.0902,"ARG_OF_PERICENTER":120.9787,"MEAN_ANOMALY":239.1561,"EPHEMERIS_TYPE":0,"CLASSIFICATION_TYPE":"U","NORAD_CAT_ID":49215,"ELEMENT_SET_NO":999,"REV_AT_EPOCH":20324,"BSTAR":0.00011982,"MEAN_MOTION_DOT":6.2e-7,"MEAN_MOTION_DDOT":0},{"OBJECT_NAME":"ONEWEB-0352","OBJECT_ID":"2021-083AG","EPOCH":"2025-10-06T04:49:52.485888","MEAN_MOTION":13.13470336,"ECCENTRICITY":0.000189,"INCLINATION":87.9032,"RA_OF_ASC_NODE":10.7189,"ARG_OF_PERICENTER":115.3927,"MEAN_ANOMALY":244.7398,"EPHEMERIS_TYPE":0,"CLASSIFICATION_TYPE":"U","NORAD_CAT_ID":49216,"ELEMENT_SET_NO":999,"REV_AT_EPOCH":19768,"BSTAR":-0.00052661,"MEAN_MOTION_DOT":-1.8e-6,"MEAN_MOTION_DDOT":0},{"OBJECT_NAME":"ONEWEB-0354","OBJECT_ID":"2021-083AH","EPOCH":"2025-10-06T04:42:41.184864","MEAN_MOTION":13.20772143,"ECCENTRICITY":0.000221,"INCLINATION":87.9245,"RA_OF_ASC_NODE":325.0833,"ARG_OF_PERICENTER":93.996,"MEAN_ANOMALY":266.1426,"EPHEMERIS_TYPE":0,"CLASSIFICATION_TYPE":"U","NORAD_CAT_ID":49217,"ELEMENT_SET_NO":999,"REV_AT_EPOCH":20328,"BSTAR":-1.4572e-5,"MEAN_MOTION_DOT":7.0e-8,"MEAN_MOTION_DDOT":0},{"OBJECT_NAME":"ONEWEB-0355","OBJECT_ID":"2021-083AJ","EPOCH":"2025-10-06T03:41:50.129088","MEAN_MOTION":13.13472081,"ECCENTRICITY":0.0001973,"INCLINATION":87.9047,"RA_OF_ASC_NODE":10.7384,"ARG_OF_PERICENTER":105.0828,"MEAN_ANOMALY":255.0519,"EPHEMERIS_TYPE":0,"CLASSIFICATION_TYPE":"U","NORAD_CAT_ID":49218,"ELEMENT_SET_NO":999,"REV_AT_EPOCH":19755,"BSTAR":0.00029804,"MEAN_MOTION_DOT":1.22e-6,"MEAN_MOTION_DDOT":0},{"OBJECT_NAME":"ONEWEB-0357","OBJECT_ID":"2021-083AK","EPOCH":"2025-10-06T04:38:08.439072","MEAN_MOTION":13.20772629,"ECCENTRICITY":0.0002001,"INCLINATION":87.9236,"RA_OF_ASC_NODE":325.0824,"ARG_OF_PERICENTER":100.1709,"MEAN_ANOMALY":259.965,"EPHEMERIS_TYPE":0,"CLASSIFICATION_TYPE":"U","NORAD_CAT_ID":49219,"ELEMENT_SET_NO":999,"REV_AT_EPOCH":20328,"BSTAR":-3.8038e-5,"MEAN_MOTION_DOT":-2.0e-8,"MEAN_MOTION_DDOT":0},{"OBJECT_NAME":"ONEWEB-0332","OBJECT_ID":"2021-090A","EPOCH":"2025-10-06T05:07:33.216096","MEAN_MOTION":13.14501445,"ECCENTRICITY":0.0001669,"INCLINATION":87.9053,"RA_OF_ASC_NODE":340.3067,"ARG_OF_PERICENTER":104.5196,"MEAN_ANOMALY":255.6119,"EPHEMERIS_TYPE":0,"CLASSIFICATION_TYPE":"U","NORAD_CAT_ID":49279,"ELEMENT_SET_NO":999,"REV_AT_EPOCH":19421,"BSTAR":-0.00016803,"MEAN_MOTION_DOT":-5.0e-7,"MEAN_MOTION_DDOT":0},{"OBJECT_NAME":"ONEWEB-0347","OBJECT_ID":"2021-090B","EPOCH":"2025-10-06T04:24:29.013696","MEAN_MOTION":13.20772457,"ECCENTRICITY":0.0001542,"INCLINATION":87.9237,"RA_OF_ASC_NODE":325.0977,"ARG_OF_PERICENTER":97.5925,"MEAN_ANOMALY":262.5383,"EPHEMERIS_TYPE":0,"CLASSIFICATION_TYPE":"U","NORAD_CAT_ID":49280,"ELEMENT_SET_NO":999,"REV_AT_EPOCH":19751,"BSTAR":0.00012775,"MEAN_MOTION_DOT":6.5e-7,"MEAN_MOTION_DDOT":0},{"OBJECT_NAME":"ONEWEB-0349","OBJECT_ID":"2021-090C","EPOCH":"2025-10-06T03:20:51.472896","MEAN_MOTION":13.20770532,"ECCENTRICITY":0.0001889,"INCLINATION":87.9229,"RA_OF_ASC_NODE":325.1058,"ARG_OF_PERICENTER":99.2822,"MEAN_ANOMALY":260.8525,"EPHEMERIS_TYPE":0,"CLASSIFICATION_TYPE":"U","NORAD_CAT_ID":49281,"ELEMENT_SET_NO":999,"REV_AT_EPOCH":19629,"BSTAR":-5.0655e-7,"MEAN_MOTION_DOT":1.3e-7,"MEAN_MOTION_DDOT":0},{"OBJECT_NAME":"ONEWEB-0353","OBJECT_ID":"2021-090D","EPOCH":"2025-10-06T04:56:08.426112","MEAN_MOTION":13.1450219,"ECCENTRICITY":0.000163,"INCLINATION":87.9053,"RA_OF_ASC_NODE":340.2912,"ARG_OF_PERICENTER":103.1028,"MEAN_ANOMALY":257.0283,"EPHEMERIS_TYPE":0,"CLASSIFICATION_TYPE":"U","NORAD_CAT_ID":49282,"ELEMENT_SET_NO":999,"REV_AT_EPOCH":19421,"BSTAR":-0.00030627,"MEAN_MOTION_DOT":-1.01e-6,"MEAN_MOTION_DDOT":0},{"OBJECT_NAME":"ONEWEB-0356","OBJECT_ID":"2021-090E","EPOCH":"2025-10-06T03:18:34.891776","MEAN_MOTION":13.20773181,"ECCENTRICITY":0.000173,"INCLINATION":87.9233,"RA_OF_ASC_NODE":325.0984,"ARG_OF_PERICENTER":69.2282,"MEAN_ANOMALY":290.9037,"EPHEMERIS_TYPE":0,"CLASSIFICATION_TYPE":"U","NORAD_CAT_ID":49283,"ELEMENT_SET_NO":999,"REV_AT_EPOCH":19629,"BSTAR":2.0204e-5,"MEAN_MOTION_DOT":2.1e-7,"MEAN_MOTION_DDOT":0}]
